,Name,Address,City,State,ZIP,County,Phone Number,Program Type,Hours of Operation,Full address,Latitude,Longitude,Latitude2,Longitude2
0,Alamance County Community Services,236 N. Mebane St,Burlington,NC,27217,Alamance,336.229.7031,PANTRY,M - F: 8:30a-4:30p,"236 N. Mebane St, Burlington, NC, 27217",36.0913242,-79.4308592,36.0927311,-79.4305204
1,Piedmont Rescue Mission,1519 N Mebane St,Burlington,NC,27217,Alamance,336.229.6995,PANTRY,Tu & Th: 1p - 3p (Appt. Only),"1519 N Mebane St, Burlington, NC, 27217",36.093336,-79.410761,36.0928924,-79.4110706
2,Melfield United Church of Christ,2144 Melfield Dr,Haw River,NC,27258,Alamance,336.578.3163,PANTRY,M - F: 11a - 11:30a (Produce); Sa: 9a - 1p (2nd Saturday of each month),"2144 Melfield Dr, Haw River, NC, 27258",36.035722,-79.335908,36.035398,-79.335167
3,Harvest Baptist Church,3741 S Church St,Burlington,NC,27215,Alamance,336.584.3333,PANTRY,W: 10a - 12p,"3741 S Church St, Burlington, NC, 27215",36.0805056,-79.5231614,36.0817513,-79.5191107
4,Burnett's Chapel Christian Church,1957 Burnett's Church Rd,Graham,NC,27253,Alamance,336.525.2114,PANTRY,Sa: 9a - 11a (3rd Saturday of each month),"1957 Burnett's Church Rd, Graham, NC, 27253",35.947265,-79.321595,35.8775497,-79.3653436
5,Breakthrough Community Church,703 S Third Street,Mebane,NC,27302,Alamance,919.810.2137,PANTRY,Tu: 6p - 7p; Sa: 11a - 1p,"703 S Third Street, Mebane, NC, 27302",36.08891,-79.273153,36.0867938,-79.2731718
6,Trinity Worship Center,3157 S Church Street,Burlington,NC,27215,Alamance,336.585.0605,PANTRY,F: 10a - 12p (3rd Friday of each month),"3157 S Church Street, Burlington, NC, 27215",36.0807079,-79.4996258,36.0813055,-79.5001792
7,DreamAlign Ministries,124 East Pine Street,Graham,NC,27253,Alamance,336.270.5238,PANTRY,M: 10a - 12p & 7p - 9p; F: 10a - 2p,"124 East Pine Street, Graham, NC, 27253",36.0680126,-79.3999186,36.0680299,-79.3990929
8,Fresh Manna Food Ministries,802 Chapel Hill Rd,Burlington,NC,27253,Alamance,336.226.2217,PANTRY,Tu: 5:30p - 8p; Th: 5:30p - 8p,"802 Chapel Hill Rd, Burlington, NC, 27253",36.0736287,-79.4407261,36.0739418,-79.4402656
9,Blessed Sacrament - Little Portion Food Pantry,328 W David St.,Burlington,NC,27215,Alamance,336.226.8796,PANTRY,Screening on 3rd Thursday of each month; Pantry on 1st Saturday after 3rd Thursday,"328 W David St., Burlington, NC, 27215",35.911001,-79.977732,36.0955555,-79.4379412
10,S.A.F.E - Southern Alamance Family Empowerment,5950 US 89 S,Graham,NC,27340,Alamance,336.525.2120,PANTRY,Tu & Sa: 9a - 12p,"5950 US 89 S, Graham, NC, 27340",35.352534,-79.108993,36.0679348,-79.400415
11,S.A.F.E. @ The Bridge,615 W. Harden St.,Graham,NC,27340,Alamance,336.525.2120,PANTRY,Th (4p-6p),"615 W. Harden St., Graham, NC, 27340",36.0688566,-79.4125591,36.0697973,-79.4124423
12,Elon First Baptist Church,113 Lynn St,Elon,NC,27244,Alamance,336.584.5657,PANTRY,1st Friday of month 12p - 3p,"113 Lynn St, Elon, NC, 27244",36.0969265,-79.5131633,36.09746,-79.5134007
13,Amos of Alamance,617 Rauhut St,Burlington,NC,27217,Alamance,336.904.2090,PANTRY,Tu: 10a - 1p,"617 Rauhut St, Burlington, NC, 27217",36.1038118,-79.4341685,36.1040134,-79.4339287
14,We Care / Bridging the Gap CDC,2414 Swann Rd,Green Level,NC,27217,Alamance,336.578.3443,PANTRY,2nd Sa of month 9a-12p,"2414 Swann Rd, Green Level, NC, 27217",36.1172138,-79.3457212,36.1174259,-79.3456357
15,Allied Churches of Alamance County,206 N Fisher Street,Burlington,NC,27217,Alamance,336.229.0881,SHELTER,Please call for availability,"206 N Fisher Street, Burlington, NC, 27217",36.0991334,-79.436838,36.0995233,-79.437028
16,The Salvation Army - Alamance,812 N. Anthony Street,Burlington,NC,27217,Alamance,336.227.5529,SOUP KITCHEN,M - F: 1p - 3:30p,"812 N. Anthony Street, Burlington, NC, 27217",36.0844015,-79.4241418,36.0850546,-79.4243185
17,Burlington Assembly of God,903 Tucker St,Burlington,NC,27215,Alamance,336.227.3434,SOUP KITCHEN,Sa: 11:30a - 12:30p; Su: 12:30p - 1:30p,"903 Tucker St, Burlington, NC, 27215",36.0813115,-79.4397966,36.0813476,-79.4400536
18,Allied Churches of Alamance County,206 N Fisher Street,Burlington,NC,27217,Alamance,336.229.0881,SOUP KITCHEN,M - Sa: 11:30a - 1p (Lunch); M - Sa: 6:30p - 7:30p (Dinner),"206 N Fisher Street, Burlington, NC, 27217",36.0991334,-79.436838,36.0995233,-79.437028
19,"Stne Soup Menus, INC",1307 E. Main St.,Graham,NC,27253,Alamance,704-719-6363,SOUP KITCHEN,Delivery (M-F),"1307 E. Main St., Graham, NC, 27253",35.3225096,-83.8047674,36.024276,-79.3573581
20,Mt Pisgah - Good Samaritan Food Pantry,9379 NC Hwy 127,Hickory,NC,28601,Alexander,828.455.8277 (JS cell),PANTRY,M: 3p - 5p; F: 1p - 3p,"9379 NC Hwy 127, Hickory, NC, 28601",35.817449,-81.30624,35.8179708,-81.306313
21,Stony Point Christian Ministries,411 Ruritan Park Rd,Stony Point,NC,28678,Alexander,336.354.2591 VS Cell,PANTRY,M:10a-1p,"411 Ruritan Park Rd, Stony Point, NC, 28678",35.8620991,-81.0459296,35.8622033,-81.0459017
22,Christian Crisis Center,215 5th Ave SW,Taylorsville,NC,28681,Alexander,828.632.0022,PANTRY,M - F: 9a - 1p,"215 5th Ave SW, Taylorsville, NC, 28681",35.9153679,-81.1824361,35.9147461,-81.1818336
23,Hiddenite Community Helpers,45 Fire Dept CT.,Hiddenite,NC,28636,Alexander,828.320.5269,PANTRY,Tu & Th: 4p - 6p,"45 Fire Dept CT., Hiddenite, NC, 28636",35.9021132,-81.0911995,35.902077,-81.0910951
24,Solid Rock Food Closet,71 Womble St,Sparta,NC,28675,Alleghany,336.372.6560,PANTRY,T - Th: 10:00a - 2:00p; 4p-6p (1st Thursday),"71 Womble St, Sparta, NC, 28675",36.5039328,-81.123435,36.50436,-81.12406
25,Ashe Really Cares,204 Beaver Creek School Road,West Jefferson,NC,28694,Ashe,336.846.5631,PANTRY,M - F: 9:30a - 3p,"204 Beaver Creek School Road, West Jefferson, NC, 28694",36.3784013,-81.4901956,36.3783537,-81.4908401
26,Ashe Food Pantry,115 Colvard St,Jefferson,NC,28640,Ashe,828.264.8747 MS cell,PANTRY,"M, Tu, Th & F: 10a - 2p","115 Colvard St, Jefferson, NC, 28640",36.418864,-81.478223,36.4195767,-81.4778706
27,Ashe Outreach Ministries,11719 Highway 88 West,Creston,NC,28615,Ashe,336.385.1314,PANTRY,Tu - Th: 9a - 2p,"11719 Highway 88 West, Creston, NC, 28615",36.451823,-81.603241,36.451619,-81.602423
28,Jefferson United Methodist Church,115 E Main St,Jefferson,NC,28640,Ashe,336.877.0207 AC cell,PANTRY,Tu: 9a - 2p,"115 E Main St, Jefferson, NC, 28640",36.4206597,-81.4735692,36.4210994,-81.4732543
29,Ashe Outreach Ministries-Riverview,11719 Highway 88 West,Creston,NC,28615,Ashe,336.385.1314,SOUP KITCHEN,Tu - Th: 11a - 12:30p,"11719 Highway 88 West, Creston, NC, 28615",36.451823,-81.603241,36.451619,-81.602423
30,The Salvation Army - Lenoir,4370 Hickory Blvd,Granite Falls,NC,28630,Caldwell,828.322.8061,PANTRY,M - Sat. 10a - 5p,"4370 Hickory Blvd, Granite Falls, NC, 28630",35.7935163,-81.4152596,35.7935378,-81.4151492
31,South Caldwell Christian Ministry,5 Quarry Rd,Granite Falls,NC,28630,Caldwell,828.396.4000,PANTRY,Tu & Th: 9a - 5p; W: 9a - 2p,"5 Quarry Rd, Granite Falls, NC, 28630",35.8014914,-81.4213135,35.802134,-81.420719
32,First Baptist Church Whitnel,1201 Connelly Springs Rd SW,Lenoir,NC,28645,Caldwell,828.493.1417 KC cell,PANTRY,"Th: 9a - 11pa(2nd and 4th Thursday of Jan., Mar., May, July, Sept., Nov. and Dec.); Sa: 9a - 12p (3rd Saturday of Jan., Mar., May, July, Sept., Nov. and Dec.)","1201 Connelly Springs Rd SW, Lenoir, NC, 28645",35.876896,-81.535811,35.8768777,-81.5355168
33,Mountain View Baptist Food Pantry,2820 Lum Davis Lane,Lenoir,NC,28645,Caldwell,828.320.9345,PANTRY,Sa: 9a - 12p (3rd Saturday of each month),"2820 Lum Davis Lane, Lenoir, NC, 28645",35.9528212,-81.5890075,35.9528193,-81.5889878
34,Pay It Forward Food Pantry,2058 Harper Avenue NW,Lenoir,NC,28645,Caldwell,828.572.4441,PANTRY,Th: 9a - 12p (2nd and 4th Thursday of each month); Sa: 9a - 12p (3rd Saturday of each month),"2058 Harper Avenue NW, Lenoir, NC, 28645",35.9007002,-81.5637527,35.9006008,-81.564765
35,Mtn Grove--Bags of Blessings,1808 Union Grove Rd.,Lenoir,NC,28645,Caldwell,828.728.2221 LP work,PANTRY,Tu: 5p - 7p (2nd and 4th Tuesday of each month),"1808 Union Grove Rd., Lenoir, NC, 28645",35.827388,-81.558002,35.8275414,-81.5585328
36,Dulatown Outreach - Kwanzaa Family Inn,1631 Old North Rd,Lenoir,NC,28645,Caldwell,828.758.2482,SHELTER,Please call for availability,"1631 Old North Rd, Lenoir, NC, 28645",35.9370328,-81.5631152,35.9366421,-81.5643986
37,Shelter Home of Caldwell County,515 Scroggs St NW,Lenoir,NC,28645,Caldwell,828.758.0888,SHELTER,Please call for availability,"515 Scroggs St NW, Lenoir, NC, 28645",35.9180339,-81.5413137,35.9174517,-81.5427158
38,Lenoir Soup Kitchen,1113 College Avenue SW,Lenoir,NC,28645,Caldwell,828.758.1411,SOUP KITCHEN,M - F: 11a - 12p (Lunch); Su: 4p - 4:45p (Dinner),"1113 College Avenue SW, Lenoir, NC, 28645",35.9112233,-81.5425417,35.9105776,-81.5432086
39,"Caswell County Parish, Inc",1038 Main Street,Yanceyville,NC,27379,Caswell,336.694.6428,PANTRY,Tu & Th: 9:30a - 4:45p,"1038 Main Street, Yanceyville, NC, 27379",36.4125609,-79.347944,36.4128069,-79.3478098
40,Shady Grove United Methodist Church,1705 Shady Grove Rd,Providence,NC,27315,Caswell,336.388.2750,PANTRY,M: 4p-6p (2nd Monday of each month),"1705 Shady Grove Rd, Providence, NC, 27315",36.515808,-79.417917,36.5155849,-79.4174193
41,Locust Hill UMC,281 Stoney Creek School Road,Reidsville,NC,27320,Caswell,336.388.2489,PANTRY,Th: 6p - 7p (3rd Thursday of each month),"281 Stoney Creek School Road, Reidsville, NC, 27320",36.356097,-79.438723,36.360583,-79.441481
42,County Outreach Ministry,225 Third Street,Yanceyville,NC,27379,Caswell,336-694-4224,PANTRY,Th: 11a - 1p; Th: 2p - 4p (2nd Thursday of each month),"225 Third Street, Yanceyville, NC, 27379",36.406931,-79.339685,36.4054625,-79.3402342
43,First Assembly of God,382 Walser Road,Lexington,NC,27295,Davidson,336) 247-1864,PANTRY,Sa.: 9:30a - 11:30a (3rd Saturday of each month),"382 Walser Road, Lexington, NC, 27295",35.8514095,-80.2592763,35.8518759,-80.2600317
44,The Salvation Army-Davidson,314 W 9th Ave,Lexington,NC,27292,Davidson,336.481.7324 ext.2,PANTRY,M - F: 8a - 4p,"314 W 9th Ave, Lexington, NC, 27292",35.8191998,-80.2659035,35.8197265,-80.2663889
45,North Lexington Baptist Church,201 Mize Rd,Lexington,NC,27295,Davidson,336.470.1102,PANTRY,Tu: 3p - 5:30p; F: 9-10a,"201 Mize Rd, Lexington, NC, 27295",35.848758,-80.263865,35.8483162,-80.2647591
46,Thomasville Community Ministry,10 W Guilford St,Thomasville,NC,27360,Davidson,336.476.1842,PANTRY,"M, Tu & Th: 9a - 4p; F: 9a - 12p","10 W Guilford St, Thomasville, NC, 27360",35.884831,-80.0830544,35.8847228,-80.0838296
47,Davidson Community Action,911 S Talbert Blvd,Lexington,NC,27292,Davidson,336.249.0234,PANTRY,Th:9a - 12p; Th: 2p - 4p,"911 S Talbert Blvd, Lexington, NC, 27292",35.812626,-80.2617808,35.8138832,-80.259618
48,South Davidson Family Resource Center,338 W Salisbury St,Denton,NC,27239,Davidson,336.859.5399,PANTRY,M - W: 8:30a - 12p,"338 W Salisbury St, Denton, NC, 27239",35.6334817,-80.1204231,35.6334674,-80.1193326
49,Abbotts Creek - Labor of Love,2817 Abbotts Creek Church Rd,High Point,NC,27265,Davidson,336.869.8410,PANTRY,M: 6:30p - 7:30p (1st and 3rd Monday of each month),"2817 Abbotts Creek Church Rd, High Point, NC, 27265",36.004732,-80.084817,36.0044213,-80.0855753
50,New Temple House of Provisions,403 National Highway,Thomasville,NC,27360,Davidson,336.870.9711,PANTRY,M: 10a - 12p,"403 National Highway, Thomasville, NC, 27360",35.8934249,-80.0713704,35.892854,-80.0714464
51,Pastors Pantry,307 N State St,Lexington,NC,27292,Davidson,336.249.8824,PANTRY,M - Th: 11a - 3p,"307 N State St, Lexington, NC, 27292",35.8268777,-80.2521291,35.8271869,-80.2516913
52,First Pentecostal-Servant's Table,509 Cloniger Road,Thomasville,NC,27360,Davidson,336.425.3062,PANTRY,Sa: 9a - 11a (1st Saturday of each month),"509 Cloniger Road, Thomasville, NC, 27360",35.86708,-80.053955,35.8676439,-80.0540937
53,Fairgrove Family Resource,159 Myrtle Drive,Thomasville,NC,27360,Davidson,336.472.7217,PANTRY,M - Th: 9a - 1p,"159 Myrtle Drive, Thomasville, NC, 27360",35.8368655,-80.1067614,35.8368633,-80.1067828
54,Services for the Deaf,8 Franklin St,Lexington,NC,27292,Davidson,336.899.7059,PANTRY,W: 8a - 12p (3rd Wednesday of each month),"8 Franklin St, Lexington, NC, 27292",35.8308469,-80.2443529,35.8306386,-80.2438284
55,"Upper Room Food Ministry, Inc.",11185 NC Highway 8,Lexington,NC,27292,Davidson,954.464.5005,PANTRY,M & W: 8:30a - 12p,"11185 NC Highway 8, Lexington, NC, 27292",35.682371,-80.268414,35.6567556,-80.2615125
56,JCF Ministries Full Gospel Church,1700 S Main Street,Lexington,NC,27292,Davidson,336.250.8885,PANTRY,Sa: 7a - 10a (1st and 3rd Saturday of each month),"1700 S Main Street, Lexington, NC, 27292",35.8073092,-80.2738525,35.8081143,-80.2740547
57,Least of These Ministries,4600 W Old Highway 64,Lexington,NC,27295,Davidson,336.425.1166,PANTRY,Tu & Th: 3:30p - 5:30p,"4600 W Old Highway 64, Lexington, NC, 27295",35.8265161,-80.2763296,35.8450944,-80.3324297
58,Greater Things Outreach,6282 Old US Hwy 52,Lexington,NC,27374,Davidson,954.205.5477,PANTRY,Tu & Th: 6p - 7:30p; W: 10a - 11:45a,"6282 Old US Hwy 52, Lexington, NC, 27374",35.736354,-79.882091,35.9107898,-80.254043
59,Loaves and Fishes Food Ministry,902 South Main St.,Lexington,NC,27292,Davidson,336.247.1692,PANTRY,Sa: 9:30a - 12p,"902 South Main St., Lexington, NC, 27292",35.8164803,-80.2624134,35.8163122,-80.2624925
60,The Father's Storehouse,609 National Hwy,Thomasville,NC,27360,Davidson,336) 870-8179,PANTRY,M: 10a-12p,"609 National Hwy, Thomasville, NC, 27360",35.8968048,-80.0691814,35.8968783,-80.069243
61,The Father's Storehouse,609 National Hwy,Thomasville,NC,27360,Davidson,336) 870-8179,SOUP KITCHEN,M: 8:30-11a (Breakfast/Lunch),"609 National Hwy, Thomasville, NC, 27360",35.8968048,-80.0691814,35.8968783,-80.069243
62,The Salvation Army-Davidson,314 W 9th Ave,Lexington,NC,27292,Davidson,336.481.7324 ext.2,SOUP KITCHEN,Tu & Th: 8:30a - 9:30a (Breakfast); M - F: 11:30a - 12:30p (Lunch),"314 W 9th Ave, Lexington, NC, 27292",35.8191998,-80.2659035,35.8197265,-80.2663889
63,Grace Episcopal Church,419 S. Main St.,Lexington,NC,27292,Davidson,336.596.0067,SOUP KITCHEN,Sun. 12:30 p - 1:30p,"419 S. Main St., Lexington, NC, 27292",35.8200725,-80.257121,35.8202249,-80.2568959
64,"He Cares, Inc.",12 W Guildford St.,Thomasville,NC,27360,Davidson,(336) 944-8761,SOUP KITCHEN,Sa: 8:00a - 9:00a (Breakfast),"12 W Guildford St., Thomasville, NC, 27360",35.874289,-80.020322,35.884639,-80.084058
65,A Storehouse for Jesus,675 E Lexington Rd,Mocksville,NC,27028,Davie,336.753.8081,PANTRY,"M, W & Th: 9a - 12p; Tu: 1p - 3p","675 E Lexington Rd, Mocksville, NC, 27028",35.8912664,-80.5590909,35.8907535,-80.5562599
66,Ascension Food Pantry,183 Fork-Bixby Rd,Advance,NC,27006,Davie,336.940.8986,PANTRY,Tu: 2:30p - 4:30p (1st & 3rd Tuesday of each month); Sa: 2:30p - 4:30p (1st and 3rd Saturday of each month); Sa: 1p - 2p (2nd and 4th Saturday of each month),"183 Fork-Bixby Rd, Advance, NC, 27006",35.882537,-80.444222,35.8824697,-80.4446255
67,First Baptist Church - Cooleemee,204 Marginal Street,Cooleemee,NC,27014,Davie,336.284.2626,PANTRY,Sa: 10a - 11:30a (2nd Saturday of each month); Sa: 3p - 4:30p (4th Saturday of each month),"204 Marginal Street, Cooleemee, NC, 27014",35.815643,-80.5552094,35.8157148,-80.5551731
68,Army of Hope,2121 Cornatzer Rd,Advance,NC,27006,Davie,336.648.0404,PANTRY,Sa: 12 - 3p (1st & 3rd Saturday of each month),"2121 Cornatzer Rd, Advance, NC, 27006",35.946765,-80.424458,35.9396235,-80.4575593
69,Winston-Salem Rescue Mission,710 Trade St.,Winston-Salem,NC,27101,Forsyth,336.723.1848,PANTRY,T: 9:00-11:00; F 1:00-2:30,"710 Trade St., Winston-Salem, NC, 27101",36.103159,-80.246558,36.1032231,-80.2466599
70,Crisis Control Ministry,200 E 10th St,Winston-Salem,NC,27101,Forsyth,336.724.7875,PANTRY,"M-F 9:00-12:00, 1:00-4:00","200 E 10th St, Winston-Salem, NC, 27101",36.106504,-80.243259,36.1068444,-80.2250537
71,Sunnyside Ministry,319 Haled St,Winston-Salem,NC,27127,Forsyth,336.724.7558,PANTRY,M - Th: 9a - 11a & 1p - 3p; F: 9a - 11a,"319 Haled St, Winston-Salem, NC, 27127",36.0720265,-80.2331674,36.0722005,-80.2327829
72,Senior Services - Meals on Wheels,2895 Shorefair Dr,Winston-Salem,NC,27105,Forsyth,336.725.0907,PANTRY,1st Monday of each month: 8a - 9a,"2895 Shorefair Dr, Winston-Salem, NC, 27105",36.1266262,-80.2507096,36.1282343,-80.2501234
73,The Salvation Army-Kernersville,130 E. Mountain St.,Kernersville,NC,27284,Forsyth,336.993-8844,PANTRY,"M, T, Th: 12:00-1:20","130 E. Mountain St., Kernersville, NC, 27284",36.1195469,-80.0728419,36.1193091,-80.0726126
74,St Peter's World Outreach,3683 Old Lexington Rd,Winston-Salem,NC,27107,Forsyth,336.650.0200,PANTRY,Tu & Th: 9a - 12p; 1st and 3rd Saturday of each month: 9a - 12p,"3683 Old Lexington Rd, Winston-Salem, NC, 27107",36.0495113,-80.224172,36.0497049,-80.2206287
75,Union Baptist Church,406 Northwest Blvd,Winston-Salem,NC,27105,Forsyth,336.724.9305,PANTRY,"1st, 3rd, & 4th Th: 1p - 3p","406 Northwest Blvd, Winston-Salem, NC, 27105",36.1105994,-80.2403935,36.1103509,-80.2485344
76,Catholic Charities,1612 14th st,Winston-Salem,NC,27105,Forsyth,336.727.0705,PANTRY,Th 9:00-11:00 Call ahead for appointment,"1612 14th st, Winston-Salem, NC, 27105",36.1127331,-80.225379,36.1125443,-80.2247446
77,Christ Rescue Temple,1500 N. Dunleith Ave.,Winston-Salem,NC,27105,Forsyth,336.722.9841,PANTRY,3rd&4th Thursday of each month: 12p - 1p,"1500 N. Dunleith Ave., Winston-Salem, NC, 27105",36.113286,-80.227073,36.1134,-80.2272978
78,St. John CME Church,350 NW Crawford Place,Winston-Salem,NC,27105,Forsyth,336.782.4179,PANTRY,4th Tuesday of each month: 11:00 - 3:00; 2nd & 3rd Th of each month: 1p - 3p,"350 NW Crawford Place, Winston-Salem, NC, 27105",36.116829,-80.251021,36.1166209,-80.2517534
79,Holy Trinity,5307 Peters Creek Parkway,Winston-Salem,NC,27127,Forsyth,336.784-9347,PANTRY,1st & 3rd Saturday of each month: 9:30a - 11:00a,"5307 Peters Creek Parkway, Winston-Salem, NC, 27127",36.0338093,-80.2604352,35.9967019,-80.2658894
80,Iglesia Wesleyana el Buen Samaritano,2800 Ludwig St,Winston-Salem,NC,27107,Forsyth,336.785.0860,PANTRY,Wednesday: 1:00-3:00,"2800 Ludwig St, Winston-Salem, NC, 27107",36.0618298,-80.2132882,36.0599202,-80.2123058
81,St Paul United Methodist Church,2400 Dellabrook,Winston-Salem,NC,27105,Forsyth,336.723.4531,PANTRY,W: 1:30p - 3p,"2400 Dellabrook, Winston-Salem, NC, 27105",36.114382,-80.220271,36.1113512,-80.2133408
82,Iglesia Nueva Vida,4423 S Main St,Winston-Salem,NC,27127,Forsyth,336.720.9204,PANTRY,2nd Tuesday of each month: 7:30p - 9p,"4423 S Main St, Winston-Salem, NC, 27127",36.030098,-80.243826,36.0298604,-80.242979
83,The Shalom Project,639 Green St,Winston-Salem,NC,27101,Forsyth,336.721.0606,PANTRY,Tu: 9a - 12:00a,"639 Green St, Winston-Salem, NC, 27101",36.0856527,-80.2498877,36.0852106,-80.2494591
84,Piney Grove Baptist Church,4633 Grove Garden Dr,Winston-Salem,NC,27106,Forsyth,336.725.8995,PANTRY,Tu & Th: 11a - 3p,"4633 Grove Garden Dr, Winston-Salem, NC, 27106",36.1537781,-80.2716833,36.1538335,-80.2710674
85,New Jerusalem Baptist Church,1227 N Dunleith Ave,Winston-Salem,NC,27101,Forsyth,336.723.9743,PANTRY,M: 11a - 2p,"1227 N Dunleith Ave, Winston-Salem, NC, 27101",36.1107727,-80.2265814,36.1103684,-80.2265054
86,Love Community Development,3980 N Liberty St,Winston-Salem,NC,27105,Forsyth,336.306.8119,PANTRY,"M, F: 12 p - 3p","3980 N Liberty St, Winston-Salem, NC, 27105",36.1430895,-80.2277153,36.150538,-80.221188
87,Whole Man Ministries,3916 Old Lexington Rd,Winston-Salem,NC,27107,Forsyth,336.785.2080,PANTRY,Th; beginning at 8:00am. 1st & 3rd Sat 9:00-10:30,"3916 Old Lexington Rd, Winston-Salem, NC, 27107",36.0380314,-80.2175307,36.0380051,-80.2180579
88,Ephesus Seventh Day Adventist,1225 N Cleveland Ave,Winston-Salem,NC,27101,Forsyth,336.724.0491,PANTRY,T & W Begins at 8:00am,"1225 N Cleveland Ave, Winston-Salem, NC, 27101",36.1105058,-80.2305423,36.1107069,-80.2293562
89,Maple Springs United Methodist Church,2569 Reynolda Rd,Winston-Salem,NC,27106,Forsyth,336.722.7563,PANTRY,"Tu 9a - 10:50a & 1p - 3p, W 9a-10:50a","2569 Reynolda Rd, Winston-Salem, NC, 27106",36.1343657,-80.2914123,36.1341404,-80.2903176
90,Centenary United Methodist Church,633 W Fourth 1/2 St.,Winston-Salem,NC,27101,Forsyth,336.724.6311,PANTRY,Tu: 10a - 11:30a,"633 W Fourth 1/2 St., Winston-Salem, NC, 27101",36.088971,-80.258789,36.0981528,-80.2509771
91,St Stephen Missionary Baptist,5000 Noble St,Winston-Salem,NC,27105,Forsyth,336.744.7303,PANTRY,2nd & 4th Th of each month: 12p - 3p,"5000 Noble St, Winston-Salem, NC, 27105",36.143457,-80.209693,36.1437853,-80.2091915
92,"Agape Care & Share, Inc.",3650-G Patterson Ave,Winston-Salem,NC,27105,Forsyth,336.744.4004,PANTRY,Tu & Th: 9a - 12p; W: 4p - 6p,"3650-G Patterson Ave, Winston-Salem, NC, 27105",36.14056,-80.243639,36.1396172,-80.2439909
93,Ardmore United Methodist Church,630 S Hawthorne Rd,Winston-Salem,NC,27103,Forsyth,336.723.3695,PANTRY,1st & 3rd Th: 5:30p - 7:00p,"630 S Hawthorne Rd, Winston-Salem, NC, 27103",36.0842461,-80.2690842,36.0841606,-80.2702226
94,Mt. Moriah - Bread of Life,317 Jefferson St,Kernersville,NC,27284,Forsyth,336.608.6266,PANTRY,3rd Saturday of each month: 11a - 1p,"317 Jefferson St, Kernersville, NC, 27284",36.1204588,-80.0663048,36.120376,-80.0659995
95,Clemmons Food Pantry,2660 Neudorf Road,Clemmons,NC,27012,Forsyth,336.331.3432,PANTRY,Tu: 4p - 6p; Th: 3:30p -7p; Sa: 9a - 11a,"2660 Neudorf Road, Clemmons, NC, 27012",36.0242591,-80.3843882,36.0242526,-80.3844368
96,Morris Chapel UMC,2715 Darrow Road,Walkertown,NC,27051,Forsyth,336.595.8101,PANTRY,Tu & Th: 10a - 11a,"2715 Darrow Road, Walkertown, NC, 27051",36.163608,-80.1459291,36.1635545,-80.1459413
97,Central Triad Church,2935 Cole Rd,Winston-Salem,NC,27107,Forsyth,336.784.0887,PANTRY,4th Saturday: 10a - 2p,"2935 Cole Rd, Winston-Salem, NC, 27107",36.0537567,-80.1694662,36.0543914,-80.1686298
98,H.O.P.E. of Winston-Salem,355 N Crawford Pl,Winston-Salem,NC,27105,Forsyth,336.816.0801,PANTRY,mobile distribution sites; call agency for listing,"355 N Crawford Pl, Winston-Salem, NC, 27105",36.115755,-80.248334,36.1175389,-80.2512553
99,Positive Wellness Alliance,3504 Vest Mill Rd,Winston-Salem,NC,27103,Forsyth,336.722.0976,PANTRY,W: 10a - 1p,"3504 Vest Mill Rd, Winston-Salem, NC, 27103",36.0728932,-80.3053906,36.072832,-80.3061569
100,Beloved Community Food Pantry,3205 S. Main Street,Winston-Salem,NC,27127,Forsyth,336.893.5677,PANTRY,1st & 3rd Thursday of each month: 10a - 12p,"3205 S. Main Street, Winston-Salem, NC, 27127",36.0532817,-80.239591,36.0537166,-80.2391506
101,Neighborhoods Hands Inc,1713 N Liberty Street,Winston-Salem,NC,27105,Forsyth,336.391.0218,PANTRY,M-F 9:00-3:00,"1713 N Liberty Street, Winston-Salem, NC, 27105",36.1153681,-80.2343361,36.1155749,-80.2342008
102,Ministerio Fil 4 13,1526 Bruce St,Winston-Salem,NC,27107,Forsyth,336.486.2309,PANTRY,T starts at 10:00; Th starts at 11:00,"1526 Bruce St, Winston-Salem, NC, 27107",36.0802854,-80.2256666,36.080127,-80.226437
103,Hope Community Church,4660 Brownsboro Rd,Winston-Salem,NC,27106,Forsyth,336.896.0002,PANTRY,S 11a-12p wkly,"4660 Brownsboro Rd, Winston-Salem, NC, 27106",36.148676,-80.2776814,36.1483895,-80.2772721
104,MBL - City Lights Ministry,1600 Williamson St,Winston-Salem,NC,27107,Forsyth,336.831.1003,PANTRY,mobile distribution sites; call agency for listing,"1600 Williamson St, Winston-Salem, NC, 27107",36.0806,-80.222331,36.0803661,-80.2219422
105,New Story Church,1401 Trade Mart Blvd,Winston-Salem,NC,27106,Forsyth,336.575.2275,PANTRY,W: 5:00-6:30,"1401 Trade Mart Blvd, Winston-Salem, NC, 27106",36.059568,-80.262821,36.06011,-80.262936
106,Project RE3 Hope Center,3801 Old Hollow Rd,Kernersville,NC,27284,Forsyth,336.904.3550,PANTRY,wkly Sa 9-11a; wkly W 9-11a & 6:30-8:30p,"3801 Old Hollow Rd, Kernersville, NC, 27284",36.1362188,-80.1200163,36.1575702,-80.1299373
107,St James UMC Community Food Pantry,165 Bethania Rural Hall Rd,Rural Hall,NC,27045,Forsyth,336.901.1171,PANTRY,wkly Th: 11a-4p,"165 Bethania Rural Hall Rd, Rural Hall, NC, 27045",36.2397535,-80.2943773,36.2396958,-80.2944007
108,Our Fathers House Ministries,20 Rink Rd,Winston-Salem,NC,27107,Forsyth,336.345.2155,PANTRY,wkly Tues 11a - 1p,"20 Rink Rd, Winston-Salem, NC, 27107",35.9987921,-80.2302551,35.9987461,-80.2311293
109,Star of Bethlehem Lutheran Church,1355 Jonestown Rd,Winston-Salem,NC,27103,Forsyth,336.682.6802,PANTRY,Sunday: 9:00-12:00,"1355 Jonestown Rd, Winston-Salem, NC, 27103",36.050958,-80.3452687,36.0500344,-80.3449287
110,Una Bendicion,4456 Old Walkertown Rd,Winston-Salem,NC,27105,Forsyth,336.777.6403,PANTRY,Two Saturdays a month 10:00-12:00,"4456 Old Walkertown Rd, Winston-Salem, NC, 27105",36.1509484,-80.2194968,36.1511863,-80.2189076
111,Winston-Salem Rescue Mission,717 Oak St,Winston-Salem,NC,27101,Forsyth,336.723.1848,SHELTER,Please call for availability,"717 Oak St, Winston-Salem, NC, 27101",36.1142291,-80.2479379,36.1033778,-80.2470083
112,Samaritan Ministries,414 E Northwest Blvd.,Winston-Salem,NC,27101,Forsyth,336.748.1962,SOUP KITCHEN,M- Su: Lunch @ 10:30a - 1p,"414 E Northwest Blvd., Winston-Salem, NC, 27101",36.110392,-80.248767,36.1104946,-80.2402667
113,The Salvation Army - Trade St - Winston Salem,1255 N Trade St,Winston-Salem,NC,27101,Forsyth,336.723.9155,SOUP KITCHEN,"M - Su: Breakfast @ 7-7:45a, Dinner (Sun. Only) 5:30-6:00 p","1255 N Trade St, Winston-Salem, NC, 27101",36.109872,-80.246299,36.1099062,-80.245813
114,Christ Rescue Temple,1500 N. Dunleith Ave.,Winston-Salem,NC,27105,Forsyth,336.722.9841,SOUP KITCHEN,Th: 12p- 1p,"1500 N. Dunleith Ave., Winston-Salem, NC, 27105",36.113286,-80.227073,36.1134,-80.2272978
115,The Shalom Project,639 Green Street,Winston-Salem,NC,27101,Forsyth,336.721.0606,SOUP KITCHEN,W: 6p - 7p,"639 Green Street, Winston-Salem, NC, 27101",36.0856527,-80.2498877,36.0852106,-80.2494591
116,H.O.P.E. of Winston-Salem,355 Crawford Pl,Winston-Salem,NC,27101,Forsyth,336.816.0801,SOUP KITCHEN,Sunday mobile distribution sites; call agency for listing,"355 Crawford Pl, Winston-Salem, NC, 27101",36.100876,-80.212746,36.1175389,-80.2512553
117,MBL - Enterprise Shared Use Kitchen,1922 S MLK Jr Dr,Winston-Salem,NC,27107,Forsyth,336.464.3140,SOUP KITCHEN,Weekday mobile distribution sites; call agency for listing,"1922 S MLK Jr Dr, Winston-Salem, NC, 27107",36.02656,-80.141077,36.0104644,-80.1651854
118,The Dwelling,502 N Broad St,Winston-Salem,NC,27101,Forsyth,336.207.0931,SOUP KITCHEN,Sunday: Noon,"502 N Broad St, Winston-Salem, NC, 27101",36.0996668,-80.2541568,36.0999725,-80.2544785
119,Triad Adult Day Care,409 E Fairfield Rd,High Point,NC,27263,Guilford,336.431.1537,PANTRY,M - F: 12p - 4p,"409 E Fairfield Rd, High Point, NC, 27263",35.9250824,-79.9775655,35.9253642,-79.9767725
120,The Salvation Army,301 W Green Dr,High Point,NC,27260,Guilford,336.881.5400,PANTRY,M: 8a - 11:30a + 1p - 2:30p; W: 8a - 11:30a + 1p - 2:30p; F: 8a - 11:30a + 1p - 2:30p,"301 W Green Dr, High Point, NC, 27260",35.953348,-80.007549,35.9526467,-80.0074541
121,MBL-The Salv Army-HP,301 W Green Dr,High Point,NC,27260,Guilford,336.881.5400,PANTRY,Please call for locations,"301 W Green Dr, High Point, NC, 27260",35.953348,-80.007549,35.9526467,-80.0074541
122,Cathedral of His Glory,4501 Lake Jeanette Rd,Greensboro,NC,27455,Guilford,336.282.0679,PANTRY,Sa: 10a - 12p on varying weeks; call agency for schedule,"4501 Lake Jeanette Rd, Greensboro, NC, 27455",36.1459789,-79.8103557,36.1351639,-79.8275952
123,Greensboro Urban Ministry,305 West Gate City Blvd,Greensboro,NC,27406,Guilford,336.271.5959,PANTRY,M - F: 9:30a - 3:30p,"305 West Gate City Blvd, Greensboro, NC, 27406",36.0647259,-79.7941933,36.064017,-79.7943778
124,Open Door Ministries - Pantry,400 N Centennial St,High Point,NC,27260,Guilford,336.885.0191,PANTRY,M - F: 11a - 2p,"400 N Centennial St, High Point, NC, 27260",35.963901,-80.002101,35.9638349,-80.0018291
125,Solid Rock Baptist Church,903 E Kearns Ave,High Point,NC,27260,Guilford,336.889.2486,PANTRY,M - F 10a - 4p,"903 E Kearns Ave, High Point, NC, 27260",35.9443174,-79.9919685,35.9445208,-79.9917212
126,Stokesdale Church of God,7835 Anthony Rd.,Stokesdale,NC,27357,Guilford,336.298.7058,PANTRY,W: 7p - 9p; Su: 12p - 3p,"7835 Anthony Rd., Stokesdale, NC, 27357",36.2298578,-80.0177172,36.2304486,-80.0186533
127,The Salvation Army - Center of Hope,1311 S Eugene St,Greensboro,NC,27406,Guilford,336.273.5572,PANTRY,Tu: 9a - 12p; Th 9a - 12p,"1311 S Eugene St, Greensboro, NC, 27406",36.058602,-79.7936167,36.0573655,-79.7927533
128,Cedar Grove Tabernacle of Praise,612 Norwalk St,Greensboro,NC,27407,Guilford,336.294.2628,PANTRY,Tu : 10a - 12p; W: 10a - 12p; Th: 10a - 12p,"612 Norwalk St, Greensboro, NC, 27407",36.0626015,-79.8707203,36.0616275,-79.8712098
129,St Paul Baptist Church,1309 Larkin St,Greensboro,NC,27406,Guilford,336.275.4680,PANTRY,Tu: 9a - 11a; Th: 9a - 11a,"1309 Larkin St, Greensboro, NC, 27406",36.0557023,-79.7813284,36.0552357,-79.7798838
130,The Redeemed Christian Church,1808 Mack Street,Greensboro,NC,27406,Guilford,336.297.4055,PANTRY,1st & 3rd Sa: 9a - 12p,"1808 Mack Street, Greensboro, NC, 27406",36.0261477,-79.8208275,36.0263601,-79.8208432
131,Piedmont Health Services & Sickle Cell Agency,401 Taylor Ave,High Point,NC,27260,Guilford,336.274.1507,PANTRY,Tu: 11a - 3p; Th: 11a - 3p,"401 Taylor Ave, High Point, NC, 27260",35.948364,-80.008432,35.9477673,-80.0085999
132,New Beginnings Full Gospel Ministries,215 Fourth St,High Point,NC,27260,Guilford,336.884.8183,PANTRY,by appointment M - F 10a - 4p,"215 Fourth St, High Point, NC, 27260",35.96146,-80.001363,35.9622055,-80.0014796
133,West End Ministries - Pantry,903 English Rd.,High Point,NC,27261,Guilford,336.884.1105,PANTRY,W: 3p - 5p,"903 English Rd., High Point, NC, 27261",35.9541607,-80.0155082,35.9537641,-80.0144013
134,A Gift of Giving,1309 Leonard Ave,High Point,NC,27260,Guilford,336.819.6120,PANTRY,Sa: 1p - 3p; Su: 2p - 4p,"1309 Leonard Ave, High Point, NC, 27260",35.9591745,-79.9898845,35.9591948,-79.9890673
135,Kingdom Building Church International,203 Lindsay St.,High Point,NC,27262,Guilford,336.476.8884,PANTRY,3rd Sa: 5p - 6p,"203 Lindsay St., High Point, NC, 27262",35.9631833,-80.0153861,35.9567741,-80.0120506
136,High Point Christian Center,234 Dorothy St,High Point,NC,27262,Guilford,336.882.8738,PANTRY,Sa: 12p - 1p,"234 Dorothy St, High Point, NC, 27262",35.9363517,-80.0431842,35.9342411,-80.0427973
137,Alamance Presbyterian Church,4000 Presbyterian Rd,Greensboro,NC,27406,Guilford,336.697.0488,PANTRY,by appointment Sa: 10:30a - 11:30a,"4000 Presbyterian Rd, Greensboro, NC, 27406",36.024344,-79.707658,36.0227905,-79.7079646
138,Ward Street Community Resource Center,1619 W Ward Avenue,High Point,NC,27260,Guilford,336.888.6091,PANTRY,W: 9a - 12p; Th: 5:30p - 7p,"1619 W Ward Avenue, High Point, NC, 27260",35.9378297,-80.0245988,35.9372876,-80.0250431
139,Helping Hands,2301 S Main St,High Point,NC,27263,Guilford,336.886.7696,PANTRY,Tu - Th: 9a -11a and 1p - 4p,"2301 S Main St, High Point, NC, 27263",35.932073,-79.989105,35.931866,-79.9888386
140,Out of the Garden Project,300 NC Hwy 68S,Greensboro,NC,27409,Guilford,336.430.6070,PANTRY,mobile distribution sites; call agency for listing,"300 NC Hwy 68S, Greensboro, NC, 27409",36.076133,-79.958574,36.068708,-79.9614116
141,MBL-Out of the Garden,300 NC Hwy 68S,Greensboro,NC,27405,Guilford,336.430.6070,PANTRY,mobile distribution sites; call agency for listing,"300 NC Hwy 68S, Greensboro, NC, 27405",36.080517,-79.740572,36.068708,-79.9614116
142,MBL-Out of the Garden,300 NC Hwy 68S,Greensboro,NC,27405,Guilford,336.430.6070,PANTRY,mobile distribution sites; call agency for listing,"300 NC Hwy 68S, Greensboro, NC, 27405",36.080517,-79.740572,36.068708,-79.9614116
143,Renaissance Road Church,5114 Harvey Rd.,Jamestown,NC,27282,Guilford,336.407.2671,PANTRY,Su: 10:30a - 12p,"5114 Harvey Rd., Jamestown, NC, 27282",35.968286,-79.930838,35.9687686,-79.9313702
144,Vandalia Presbyterian Church,101 W Vandalia Road,Greensboro,NC,27406,Guilford,336.275.3705,PANTRY,W: 9a - 12p,"101 W Vandalia Road, Greensboro, NC, 27406",36.01502,-79.793696,36.0145083,-79.7943772
145,Julian United Methodist Church,2105 NC Hwy 62 E,Julian,NC,27283,Guilford,336.685.0103,PANTRY,3rd Sa: 9a - 10a,"2105 NC Hwy 62 E, Julian, NC, 27283",35.910699,-79.654352,35.9096168,-79.6576536
146,Celia Phelps Memorial UMC,3709 Groometown Road,Greensboro,NC,27407,Guilford,336.855.8348,PANTRY,1st & 3rd Tu: 10a - 1p; 3rd Sa: 10a - 12p,"3709 Groometown Road, Greensboro, NC, 27407",36.013587,-79.865451,36.0135373,-79.8646398
147,One Step Further,1900 W Market Street,Greensboro,NC,27401,Guilford,336-275-3699,PANTRY,M: 9:30a - 2:30p; Tu: 9:30a - 2:30p; W: 9:30a - 2:30p; Th: 9:30a - 2:30p,"1900 W Market Street, Greensboro, NC, 27401",36.074115,-79.818058,36.0744343,-79.8183371
148,One Step Further,1012 Leonard St,High Point,NC,27401,Guilford,336-275-3699,PANTRY,2nd & 3rd F: 11a - 3p,"1012 Leonard St, High Point, NC, 27401",36.061018,-79.776746,35.9587391,-79.9932711
149,One Step Further,1806 Merritt Dr,Greensboro,NC,27407,Guilford,336.275.3699,PANTRY,F: 11a - 2p,"1806 Merritt Dr, Greensboro, NC, 27407",36.0475726,-79.8582019,36.0489888,-79.8567503
150,Genesis Baptist Church Food Pantry,2812 E. Bessemer Ave,Greensboro,NC,27405,Guilford,336.379.1133,PANTRY,2nd & 4th Th: 1p - 2:30p,"2812 E. Bessemer Ave, Greensboro, NC, 27405",36.0850795,-79.7505955,36.0843546,-79.7486245
151,Cappadocia Intergrowth Enrichment,600 W. Minneola Street,Gibsonsville,NC,27249,Guilford,336.603.6374,PANTRY,varies - call agency,"600 W. Minneola Street, Gibsonsville, NC, 27249",36.108064,-79.55187,36.1085878,-79.5517558
152,New Zion Missionary Baptist Church,408 Martin Luther King Jr. Dr.,Greensboro,NC,27406,Guilford,336.272.8441,PANTRY,T: 12:p -2p,"408 Martin Luther King Jr. Dr., Greensboro, NC, 27406",36.064014,-79.786606,36.0640556,-79.7870243
153,5 Loaves 2 Fish Food Pantry,2066 Deep River Rd,High Point,NC,27265,Guilford,336.454.5292,PANTRY,Sa: 1p - 4p,"2066 Deep River Rd, High Point, NC, 27265",36.0078464,-79.9743364,36.0146224,-79.9740591
154,Free Indeed Food Pantry,2400 S Holden Rd,Greensboro,NC,27407,Guilford,336.370.6707,PANTRY,3rd Sat of month: 11a-1p,"2400 S Holden Rd, Greensboro, NC, 27407",36.035981,-79.850067,36.0359137,-79.8507599
155,Lebanon Baptist Church Pantry,4635 Hicone Rd,Greensboro,NC,27405,Guilford,336.621.0597,PANTRY,4th Sa: 9a - 11a,"4635 Hicone Rd, Greensboro, NC, 27405",36.1514038,-79.727734,36.1540805,-79.7114488
156,Divine Intervention - Care Link,1214 Grove Street,Greensboro,NC,27402,Guilford,336.285.6887,PANTRY,M - F: 9a - 5p,"1214 Grove Street, Greensboro, NC, 27402",36.0534877,-79.8113564,36.0535,-79.8119547
157,Locust Grove,4707 NC Hwy 150,Browns Summit,NC,27214,Guilford,336.656.3056,PANTRY,3rd Th: 9a - 12p; 3rd Th: 4p - 7p,"4707 NC Hwy 150, Browns Summit, NC, 27214",36.213994,-79.688318,36.2127803,-79.7131567
158,Wells Memorial - We Care Pantry,1001 E Washington Street,Greensboro,NC,27401,Guilford,336.895.4776,PANTRY,3rd Tu: 5p - 7p; 3rd Sa: 9a - 1p,"1001 E Washington Street, Greensboro, NC, 27401",36.0690727,-79.7772053,36.0696402,-79.7767284
159,Lutheran Church of Our Father,3304 Groometown Rd,Greensboro,NC,27407,Guilford,336.299.0235,PANTRY,2nd M 5:30p - 7:30p; each W 9:30a - 11:30a,"3304 Groometown Rd, Greensboro, NC, 27407",36.0225389,-79.8659151,36.0214803,-79.8670199
160,Emerywood Baptist Church,1300 Country Club Dr,High Point,NC,27262,Guilford,804.477.4548,PANTRY,1st & 3rd Saturday of each month: 9a - 12p,"1300 Country Club Dr, High Point, NC, 27262",35.965413,-80.033688,35.9657031,-80.0353661
161,Manna House of Coliseum Blvd,1906 Bailiff St,Greensboro,NC,27403,Guilford,336.446.9341,PANTRY,Tues 11a-1p call for appointment preferred,"1906 Bailiff St, Greensboro, NC, 27403",36.0486238,-79.8224779,36.0487613,-79.8231741
162,MBL - World Victory Int'l Christian Center,1414 Cliffwood Dr,Greensboro,NC,27406,Guilford,336.574.0202,PANTRY,mobile distribution sites; call agency for listing,"1414 Cliffwood Dr, Greensboro, NC, 27406",36.0382181,-79.8157532,36.0389802,-79.8172768
163,Positive Direction for Youth & Families,1523 Barto Pl. Suite E,Greensboro,NC,27405,Guilford,336.375.3900,PANTRY,M & W 6:30p - 8:30p Pop up on Th 11a - 12:30p at different locations (call),"1523 Barto Pl. Suite E, Greensboro, NC, 27405",36.095654,-79.751342,36.0969561,-79.75154
164,MBL-PD&Y,2270 East Cone Blvd,Greensboro,NC,27405,Guilford,336.375.3900,PANTRY,Thursdays 11a - 12p (please call for location),"2270 East Cone Blvd, Greensboro, NC, 27405",36.1128783,-79.7477686,36.1127433,-79.7419728
165,Gate City Vineyard Christian Fellowship / Gate City Grocery GiveAway,204 S Westgate Dr,Greensboro,NC,27407,Guilford,336.323.1288,PANTRY,weekly on W 9a-10:30a,"204 S Westgate Dr, Greensboro, NC, 27407",36.0673907,-79.8612429,36.0672378,-79.8609721
166,True Salvation Outreach Ministry,1901 Spencer St,Greensboro,NC,27401,Guilford,336.988.0123,PANTRY,4th Saturday: 10a - 12p,"1901 Spencer St, Greensboro, NC, 27401",36.068098,-79.761193,36.0683541,-79.7611503
167,A Shared Blessing Food Pantry - First UMC - HPT,335 N Wrenn St.,High Point,NC,27260,Guilford,336.889.4429,PANTRY,yet to be determined - will update Juy 2021,"335 N Wrenn St., High Point, NC, 27260",35.9608556,-80.0073474,35.9611,-80.00772
168,Triad Food Pantry,1311 Johnson St,High Point,NC,27262,Guilford,336.991.5329,PANTRY,3rd Wed 3p-4p; Seniors & Disabled 3rd Tuesday 11a-12:30p,"1311 Johnson St, High Point, NC, 27262",35.9730918,-80.0160703,35.9735695,-80.0165058
169,HTH-Cone Health-Heart & Vascular,1121 N Church St Ent. C,Greensboro,NC,27401,Guilford,336.832.2718,PANTRY,M-F 8am-5pm (by appt),"1121 N Church St Ent. C, Greensboro, NC, 27401",36.092001,-79.783803,36.092744,-79.7855611
170,HTH-Cone Health-Infectious Disease,"301 E Wendover Ave, Suite 111",Greensboro,NC,27401,Guilford,336.832.7840,PANTRY,M-F 8:30am-5:00pm (by appt),"301 E Wendover Ave, Suite 111, Greensboro, NC, 27401",36.088009,-79.786424,36.0887226,-79.7858961
171,MANNA Box Ministry,4400 Alamance Church Rd,Liberty,NC,27298,Guilford,336.565.4812,PANTRY,Offers delivery - call in advance,"4400 Alamance Church Rd, Liberty, NC, 27298",35.950238,-79.550321,35.9511567,-79.5533633
172,180 turn Ch.- Jean & Dean Food Pantry,1379 Lees Chapel Rd,Greensboro,NC,27407,Guilford,336.833.0726,PANTRY,2nd & 4th Saturday 11am-1pm,"1379 Lees Chapel Rd, Greensboro, NC, 27407",36.1396156,-79.7787019,36.1404477,-79.7773632
173,We Are One Christian Fellowship,1951 Brightwood School,Greensboro,NC,27405,Guilford,336.358.2131,PANTRY,Fridays 11am-2pm,"1951 Brightwood School, Greensboro, NC, 27405",36.1467499,-79.749917,36.1474627,-79.748969
174,MBL-Greensboro Police Dept,100 E Police Plaza,Greensboro,NC,27401,Guilford,336.412.3968,PANTRY,Call for schedule,"100 E Police Plaza, Greensboro, NC, 27401",35.979611,-79.705542,36.0692782,-79.793472
175,Safer Cities,2523 E Phillips Ave,Greensboro,NC,27405,Guilford,"336.912.3742,",PANTRY,3rd Thursday 2:30-3:30,"2523 E Phillips Ave, Greensboro, NC, 27405",36.094966,-79.744977,36.0962713,-79.7439526
176,Jewish Family Services,5509-C W Friendly Ave,Greensboro,NC,27410,Guilford,336.852.4829,PANTRY,Thursdays 10am-12:30pm,"5509-C W Friendly Ave, Greensboro, NC, 27410",36.116219,-79.867544,36.0892651,-79.8796927
177,Grace Point Pantry,5934 Surrett Dr.,High Point,NC,27263,Guilford,336.989.8000,PANTRY,2nd & 4th Sat of month 10a-2p,"5934 Surrett Dr., High Point, NC, 27263",35.9197531,-79.9999952,35.9018812,-79.9989066
178,Open Door Ministries - Father's Table,400 N Centennial St,High Point,NC,27260,Guilford,336.885.0191,SOUP KITCHEN,Breakfast: M - Su 8a - 9a; Lunch: M - Sa 11a - 12p; Dinner: M - Su 6p - 7p,"400 N Centennial St, High Point, NC, 27260",35.963901,-80.002101,35.9638349,-80.0018291
179,West End Ministries - Soup Kitchen,903 English Rd.,High Point,NC,27261,Guilford,336.884.1105,SOUP KITCHEN,Th: 5p - 6:30p,"903 English Rd., High Point, NC, 27261",35.9541607,-80.0155082,35.9537641,-80.0144013
180,Renaissance Road Church,5114 Harvey Rd.,Jamestown,NC,27282,Guilford,336.407.2671,SOUP KITCHEN,Th-6pm-8pm;Sat-8am-9:30am,"5114 Harvey Rd., Jamestown, NC, 27282",35.968286,-79.930838,35.9687686,-79.9313702
181,Free Indeed Outreach Ministry,4615-A Hill Top Road,Greensboro,NC,27405,Guilford,336.370.6707,SOUP KITCHEN,4th Sa: 11a - 2p,"4615-A Hill Top Road, Greensboro, NC, 27405",36.04946,-79.809505,36.0329324,-79.8811031
182,Divine Intervention - Care Link,1214 Grove Street,Greensboro,NC,27402,Guilford,336.285.6887,SOUP KITCHEN,M - F: times and dates vary - call agency,"1214 Grove Street, Greensboro, NC, 27402",36.0534877,-79.8113564,36.0535,-79.8119547
183,The Salvation Army - Statesville,1361 Caldwell St,Statesville,NC,28677,Iredell,704.872.5623,PANTRY,M - Th: 9a - 3:30p,"1361 Caldwell St, Statesville, NC, 28677",35.7659016,-80.8867139,35.7659244,-80.8866685
184,Yokefellow Ministry of Statesville,1380 Shelton Ave,Statesville,NC,28677,Iredell,704-872-7677,PANTRY,Tu & W: 11:30a - 2:30p; Th: 2:30p - 4p; F: 9:30a - 12:30p,"1380 Shelton Ave, Statesville, NC, 28677",35.7675275,-80.885756,35.7676365,-80.8857276
185,Cornerstone Church,650 Glover St,Statesville,NC,28625,Iredell,704.873.0032,PANTRY,M-F: Appt. Only,"650 Glover St, Statesville, NC, 28625",35.781886,-80.855325,35.782063,-80.8564881
186,Landmark Relief,2200 E Broad St,Statesville,NC,28625,Iredell,704.80.0625 (LW),PANTRY,Tu: 10:30a - 12:30p (1st and 3rd Tuesday of each month),"2200 E Broad St, Statesville, NC, 28625",35.7928095,-80.8446725,35.792697,-80.8446122
187,First Church of Nazarene,506 Medlin St,Statesville,NC,28677,Iredell,704.878.2235,PANTRY,Tu & F: 11a - 12:30p,"506 Medlin St, Statesville, NC, 28677",35.7890973,-80.9108978,35.7890997,-80.9109263
188,Iredell Christian Ministries,752 Old Salisbury Road,Statesville,NC,28677,Iredell,704.924.6700,PANTRY,M - W: 9:30a - 12p; Th: 1p - 3:30p,"752 Old Salisbury Road, Statesville, NC, 28677",35.7762008,-80.8731103,35.7761529,-80.8731052
189,Matthew 25 Ministries,3223 Harmony Hwy,Harmony,NC,28634,Iredell,704.546.5859,PANTRY,"M, F & Sa: 9a - 12p","3223 Harmony Hwy, Harmony, NC, 28634",35.9496847,-80.7733844,35.9497511,-80.773442
190,Union Grove UMC,1331 Sloans Mill Rd,Union Grove,NC,28689,Iredell,(704) 682-0261,PANTRY,Th: 4p - 6:30p (2nd and 4th Thursday of each month),"1331 Sloans Mill Rd, Union Grove, NC, 28689",36.0231007,-80.8666326,36.0231069,-80.8666207
191,Ministerio de Compasion,214 Shumaker Dr,Statesville,NC,28625,Iredell,704.437.0553,PANTRY,W: 5-7p,"214 Shumaker Dr, Statesville, NC, 28625",35.8402002,-80.8769576,35.8400937,-80.8767583
192,Diakonos- Fifth Street Shelter,1421 Fifth St,Statesville,NC,28677,Iredell,704.872.4045,SOUP KITCHEN,M - Su: 6:30a - 7a (Breakfast);M - Su: 11a - 11:30a (Lunch); M - Su: 5:30p - 6p (Dinner),"1421 Fifth St, Statesville, NC, 28677",35.766277,-80.89013,35.7653628,-80.8897472
193,Christians United Outreach Center,930 S. Fayetteville St.,Asheboro,NC,27203,Randolph,336.625.1500,PANTRY,M: 10a - 3p; Tu: 10a - 3p; 10a - 3p; Th: 12p-6p; F: emergencies only,"930 S. Fayetteville St., Asheboro, NC, 27203",35.6948303,-79.8155458,35.6949904,-79.8156229
194,The Salvation Army - Asheboro,345 N Church St,Asheboro,NC,27203,Randolph,336.625.0551,PANTRY,"M - F: 9a - 11a, 1p - 3p","345 N Church St, Asheboro, NC, 27203",35.7116027,-79.8166613,35.7114107,-79.8170238
195,First Assembly - Caring Place,909 Meadowbrook Rd,Asheboro,NC,27203,Randolph,336.629.3101,PANTRY,3rd Wednesday of each month: 5p - 6:30p,"909 Meadowbrook Rd, Asheboro, NC, 27203",35.7206958,-79.8026332,35.7205645,-79.8035396
196,Midway United Missionary Church,307 S Stout St,Randleman,NC,27317,Randolph,336.498.7580,PANTRY,"T, W, Sa, Su: 5p - 7p; Th & F: by appt only","307 S Stout St, Randleman, NC, 27317",35.8159292,-79.812565,35.8152315,-79.812449
197,Hope Baptist Church of NC,4872 Old Edgar Rd,Sophia,NC,27350,Randolph,336.495.4673,PANTRY,by appointment only,"4872 Old Edgar Rd, Sophia, NC, 27350",35.845143,-79.896645,35.845528,-79.89575
198,Beulah Baptist Church,7239 NC Hwy 22-42,Bennett,NC,27208,Randolph,336.581.3121,PANTRY,3rd Saturday of each month: 10a - 12p,"7239 NC Hwy 22-42, Bennett, NC, 27208",35.597588,-79.581298,35.5959607,-79.5798563
199,Liberty Association of Churches,329 B West Bowman Avenue,Liberty,NC,27298,Randolph,336.622.8312,PANTRY,M & Th: 2p - 5p,"329 B West Bowman Avenue, Liberty, NC, 27298",35.856307,-79.577082,35.8559881,-79.5767618
200,Asheboro Shelter of Hope,133 W. Wainman Ave,Asheboro,NC,27203,Randolph,336.318.0012,SHELTER,Please call for availability,"133 W. Wainman Ave, Asheboro, NC, 27203",35.7020391,-79.8150443,35.7019551,-79.8155791
201,The Salvation Army - Reidsville,704 Barnes Street,Reidsville,NC,27320,Rockingham,336.349.4923,PANTRY,"M, W, Th, F: 9a - 12p","704 Barnes Street, Reidsville, NC, 27320",36.3537964,-79.6560778,36.35337,-79.656608
202,The Salvation Army - Eden,314 Morgan Rd.,Eden,NC,27360,Rockingham,336.627.4177,PANTRY,M - F: 12:30p - 2:30p,"314 Morgan Rd., Eden, NC, 27360",36.5101228,-79.7589882,36.5097231,-79.7586067
203,"Men In Christ, Inc.",200 S Main Street,Reidsville,NC,27320,Rockingham,336.342.9886,PANTRY,2nd & 4th Tu: 10a - 1p,"200 S Main Street, Reidsville, NC, 27320",36.360363,-79.665951,36.3602384,-79.6661297
204,Rockingham Hope,3692 NC Hwy 14,Reidsville,NC,27288,Rockingham,336.623.2133,PANTRY,T - F: 9a - 12p,"3692 NC Hwy 14, Reidsville, NC, 27288",36.509308,-79.681607,36.4334615,-79.7035703
205,Reidsville Outreach Center,435 SW Market St,Reidsville,NC,27320,Rockingham,336.342.7770,PANTRY,Th: 9a - 12p (bi-weekly),"435 SW Market St, Reidsville, NC, 27320",36.3580351,-79.6630556,36.3566711,-79.6624242
206,In His Name Christian Services,1863 S Park Dr,Reidsville,NC,27320,Rockingham,336.349.2088,PANTRY,W: 9a - 12p,"1863 S Park Dr, Reidsville, NC, 27320",36.332986,-79.6746583,36.330997,-79.673712
207,"LOT 2540, Inc.",411 S. 2nd Avenue,Mayodan,NC,27025,Rockingham,336-447-3873,PANTRY,Last Saturday of each month: 10a - 12p,"411 S. 2nd Avenue, Mayodan, NC, 27025",36.4066593,-79.9684668,36.405127,-79.969999
208,God's Helping Hands Pantry,4933 NC Highway 770,Stoneville,NC,27048,Rockingham,336.573.9467,PANTRY,F: 11a - 1p,"4933 NC Highway 770, Stoneville, NC, 27048",36.469119,-79.886192,36.4664647,-79.9056264
209,Draper PHC - Hope Outreach Ctr,204 S. Bethel St,Eden,NC,27288,Rockingham,336.635.1990,PANTRY,3rd Saturday of month 9a - 11a,"204 S. Bethel St, Eden, NC, 27288",36.5141,-79.6891873,36.5139142,-79.6889839
210,Samaritan's Cupboard,220 E Meadow Rd,Eden,NC,27288,Rockingjam,336.612.2044,PANTRY,Wednesday 12p-3p,"220 E Meadow Rd, Eden, NC, 27288",36.507728,-79.7404504,36.5074481,-79.7397903
211,Grace Baptist Church - Madison - Gracefully Giving,3097 US Hwy 311,Madison,NC,27025,Rockingham,336.427.3494,PANTRY,M: 10a-12p,"3097 US Hwy 311, Madison, NC, 27025",36.3852644,-79.9555061,36.3653735,-80.0289092
212,CORMII CDC,1309-D Northup St,Reidsville,NC,27320,Rockingham,336.497.1601,PANTRY,Th: 4p-5p and emergencies as needed,"1309-D Northup St, Reidsville, NC, 27320",36.3461,-79.666683,36.345332,-79.665905
213,The Salvation Army - Eden,314 Morgan Rd,Eden,NC,27288,Rockingham,336.627.4177,SOUP KITCHEN,M - F: 12:30p - 1:15p,"314 Morgan Rd, Eden, NC, 27288",36.5101228,-79.7589882,36.5097231,-79.7586067
214,"LOT 2540, Inc.",411 S. 2nd Street,Mayodan,NC,27025,Rockingham,336-447-3873,SOUP KITCHEN,Tu - Sa: 12p - 1p,"411 S. 2nd Street, Mayodan, NC, 27025",36.294143,-80.138201,36.405127,-79.969999
215,King Outreach Ministry,413 Kingsway Dr,King,NC,27021,Stokes,336.983.4357,PANTRY,M - F: 9a - 11:30a,"413 Kingsway Dr, King, NC, 27021",36.2754128,-80.3786278,36.2750361,-80.37887
216,East Stokes Outreach Ministry,301 West Third St,Walnut Cove,NC,27052,Stokes,336.591.3237,PANTRY,M - F: 9a - 11:30a,"301 West Third St, Walnut Cove, NC, 27052",36.295553,-80.143298,36.295184,-80.1432509
217,The Rock Church,416 W King Street,King,NC,27021,Stokes,336.467.4627,PANTRY,Th: 5p - 7p (3rd Thursday of each month),"416 W King Street, King, NC, 27021",36.2794636,-80.3494263,36.286378,-80.366667
218,Francisco Presbyterian Church,7257 NC Hwy 89 W,Westfield,NC,27053,Stokes,336.593.3757,PANTRY,M: 9a - 5p (2nd and 4th Monday of each month),"7257 NC Hwy 89 W, Westfield, NC, 27053",36.509527,-80.358138,36.4483674,-80.2854623
219,Yokefellow Ministry of Mt Airy,215 Jones School Rd,Mt Airy,NC,27030,Surry,336.789.5838,PANTRY,M - F: 9a - 11:15a,"215 Jones School Rd, Mt Airy, NC, 27030",36.5313087,-80.6019522,36.5306308,-80.6033325
220,Trinity Episcopal Church,427 N Main St,Mt. Airy,NC,27030,Surry,336.786.6067,PANTRY,Th: 8:30a - 9:30a,"427 N Main St, Mt. Airy, NC, 27030",36.5023906,-80.6087326,36.5024167,-80.6088626
221,Tri-County Christian Crisis Ministry,290 N Bridge St.,Elkin,NC,28642,Surry,336.526.1089,PANTRY,M: 1p - 4p; W & F: 9a - 12p,"290 N Bridge St., Elkin, NC, 28642",36.247764,-80.8514921,36.2479611,-80.8513795
222,The Salvation Army - Mt Airy,651 S South Street,Mt. Airy,NC,27030,Surry,336.786.4075,PANTRY,M - Th: 9a - 4p; F: 9a - 12p (Appt.),"651 S South Street, Mt. Airy, NC, 27030",36.492852,-80.6147427,36.4923746,-80.6142404
223,Foothills Food Pantry,233 Cooper St,Dobson,NC,27017,Surry,336.386.8405,PANTRY,M: 6p - 7p; Tu & Th: 9a - 12:15p,"233 Cooper St, Dobson, NC, 27017",36.391365,-80.72449,36.391397,-80.7243219
224,SEAMS - Pilot Mountain Outreach,407 Old US 52 Bypass,Pilot Mountain,NC,27041,Surry,336.368.4907,PANTRY,Tu - Th: 9a - 12p,"407 Old US 52 Bypass, Pilot Mountain, NC, 27041",36.386443,-80.46,36.3870211,-80.4601766
225,Helping Hands Foundation of Surry,114 W Lebanon St,Mt. Airy,NC,27030,Surry,336.673.0216,PANTRY,M - F: 9a - 3p,"114 W Lebanon St, Mt. Airy, NC, 27030",36.5107157,-80.6096361,36.5108093,-80.6096432
226,ECHO Ministry-The Ark Homeless,130 Hill Street,Elkin,NC,28621,Surry,336.527.1637,SHELTER,Please call for availability,"130 Hill Street, Elkin, NC, 28621",36.2644579,-80.8472898,36.2648177,-80.8468174
227,Greater Mt Airy Ministry of Hospitality - Shepherd's House,227 Rockford St,Mt. Airy,NC,27030,Surry,336.786.1420,SHELTER,Please call for availability,"227 Rockford St, Mt. Airy, NC, 27030",36.4972082,-80.6088562,36.4971764,-80.6087758
228,The Hunger & Health Coalition,141 Health Center Dr,Boone,NC,28607,Watauga,828.262.1628,PANTRY,M - F: 8:30a - 4:30p,"141 Health Center Dr, Boone, NC, 28607",35.929101,-81.177639,36.2145709,-81.6413092
229,The Hunger & Health Coalition - Western Watauga,1081 Old US Highway 421,Sugar Grove,NC,28679,Watauga,828.262.1628,PANTRY,Th: 4p -6p (Every other Thursday),"1081 Old US Highway 421, Sugar Grove, NC, 28679",36.2659413,-81.7831137,36.2656987,-81.7835295
230,Hospitality House,338 Brook Hollow Road,Boone,NC,28607,Watauga,828.264.1237,PANTRY,M - F: 9a - 11a; M - F: 1p - 4p,"338 Brook Hollow Road, Boone, NC, 28607",36.213957,-81.640304,36.2140537,-81.641138
231,First Baptist Church - Boone,375 W King St,Boone,NC,28607,Watauga,828.264.2441,PANTRY,M: 3p - 6p,"375 W King St, Boone, NC, 28607",36.2170355,-81.6803951,36.2165431,-81.6797776
232,Greenway Baptist Church,880 Greenway Rd,Boone,NC,28607,Watauga,828.264.7750,PANTRY,Th: 10a - 2:30p,"880 Greenway Rd, Boone, NC, 28607",36.1979226,-81.6640588,36.1976482,-81.6642471
233,Casting Bread Food Market,194 Aho Rd.,Blowing Rock,NC,28605,Watauga,828.773.6509 (DM cell),PANTRY,W & Th: 10a - 3p,"194 Aho Rd., Blowing Rock, NC, 28605",36.147954,-81.644013,36.153281,-81.645341
234,Blowing Rock Cares Food Pantry,1218 Main St,Blowing Rock,NC,28605,Watauga,252.435.8602 (KS Cell),PANTRY,W: 9a - 12p,"1218 Main St, Blowing Rock, NC, 28605",36.1310646,-81.6786398,36.130778,-81.6792214
235,Hospitality House,338 Brook Hollow Road,Boone,NC,28607,Watauga,828.264.1237,SOUP KITCHEN,M - Su: 6:30a - 8:00a (Breakfast); M - Su: 11:30a - 1p (Lunch); M - Su: 5:30p - 6:30p (Dinner),"338 Brook Hollow Road, Boone, NC, 28607",36.213957,-81.640304,36.2140537,-81.641138
236,BROC: Wilkes Community Action,710 Veterans Drive,North Wilkesboro,NC,28659,Wilkes,336.667.7174,PANTRY,M - F: 8:30a-4:00p,"710 Veterans Drive, North Wilkesboro, NC, 28659",36.208773,-81.067495,36.1659219,-81.1306822
237,Brushy Mtn Baptist - Wilkes Min of Hope,514 Elkin Highway,North Wilkesboro,NC,28659,Wilkes,336.262.7224 (JT cell),PANTRY,"M, Tu & Th: 9a - 1p","514 Elkin Highway, North Wilkesboro, NC, 28659",36.1834325,-81.1313207,36.1831184,-81.1310269
238,Brushy Mtn Baptist - Boomer Food Pantry,149 Boomer Church Road,Boomer,NC,28606,Wilkes,336.903.1414,PANTRY,Sa: 9a - 12p (2nd Saturday of each month),"149 Boomer Church Road, Boomer, NC, 28606",36.0678508,-81.2566654,36.0672199,-81.2581897
239,Antioch Baptist Church,1298 Antioch Church Rd,Wilkesboro,NC,28697,Wilkes,336.466.5400 (Kay Smith cell),PANTRY,Sa: 8a - 11a (3rd Saturday of each month);,"1298 Antioch Church Rd, Wilkesboro, NC, 28697",36.166528,-81.027275,36.1662702,-81.0281278
240,MBL- Antioch Baptist Church,12164 Elkin Hwy #268,Ronda,NC,28670,Wilkes,336.466.5400 (Kay Smith cell),PANTRY,9a - 11a (4th Saturday of the month),"12164 Elkin Hwy #268, Ronda, NC, 28670",36.2251209,-80.9261502,,
241,Pilgrim Baptist Church - Outreach Center,493 Pilgrim Baptist Church Rd,Wilkesboro,NC,28697,Wilkes,336.927.1703 (RW cell),PANTRY,Sa: 9a - 12p (3rd Saturday of each month),"493 Pilgrim Baptist Church Rd, Wilkesboro, NC, 28697",36.151092,-81.274689,36.1510867,-81.275918
242,Maple Springs United Methodist Church,15733 Elkin Hwy,Ronda,NC,28670,Wilkes,336.336.9375 (RT cell),PANTRY,Tu: 4p - 6p (3rd Tuesday of each month),"15733 Elkin Hwy, Ronda, NC, 28670",36.2382602,-80.8991128,36.2413816,-80.893188
243,Samaritan Kitchen of Wilkes,4187 US Highway 421,Wilkesboro,NC,28697,Wilkes,336.838.5331,PANTRY,"M, W & F: 9a - 12:30p","4187 US Highway 421, Wilkesboro, NC, 28697",36.149751,-81.220618,36.1492689,-81.235189
244,New Damascus Baptist Church,161 Damascus Church Rd,Wilkesboro,NC,28697,Wilkes,336.692.3727 (SS cell),PANTRY,1st & 3rd Saturday monthly 9:30a - 11:30a,"161 Damascus Church Rd, Wilkesboro, NC, 28697",36.153095,-81.115742,36.150761,-81.120859
245,Yadkin Christian Ministries,117 Woodlyn Dr,Yadkinville,NC,27055,Yadkin,336.677.3080,PANTRY,M: 4:30p - 6:45p; Tu - F: 9a - 11:45a,"117 Woodlyn Dr, Yadkinville, NC, 27055",36.1166467,-80.6539226,36.1175576,-80.6538045
246,Yadkin Christian Ministries - East Bend,118 Hwy 67,East Bend,NC,27018,Yadkin,336.699.4544,PANTRY,Tu: 5:30p - 7:30p; Th - 10a - 12p; Sa: 10a - 12p,"118 Hwy 67, East Bend, NC, 27018",36.217438,-80.525058,36.2165279,-80.512558
247,Divino Redentor Catholic Church,209 Lon Ave,Boonville,NC,27011,Yadkin,336.367.7067,PANTRY,Tu & Th: 6p - 8p; Su: 6 - 8p,"209 Lon Ave, Boonville, NC, 27011",36.2422015,-80.7089497,36.2422743,-80.709227